[
  {
    "OBJECT_NAME": "STARLINK-32784",
    "OBJECT_ID": "25008W",
    "EPOCH": "2025-11-11T02:58:46.539264",
    "MEAN_MOTION": 15.27640711,
    "ECCENTRICITY": 0.0001469,
    "INCLINATION": 42.9995,
    "RA_OF_ASC_NODE": 227.3131,
    "ARG_OF_PERICENTER": 258.355,
    "MEAN_ANOMALY": 101.7137,
    "EPHEMERIS_TYPE": 0,
    "CLASSIFICATION_TYPE": "U",
    "NORAD_CAT_ID": 62607,
    "ELEMENT_SET_NO": 999,
    "REV_AT_EPOCH": 4749,
    "BSTAR": 0.0019001000000000003,
    "MEAN_MOTION_DOT": 0.00052496,
    "MEAN_MOTION_DDOT": 0.0,
    "TLE_LINE1": "1 62607U 25008W   25315.12414976  .00052496  00000+0  19001-2 0  9994",
    "TLE_LINE2": "2 62607  42.9995 227.3131 0001469 258.3550 101.7137 15.27640711 47496",
    "COMMENT": "Grouped by shell and plane from TLE"
  },
  {
    "OBJECT_NAME": "STARLINK-32953",
    "OBJECT_ID": "25075P",
    "EPOCH": "2025-11-11T03:11:16.481760",
    "MEAN_MOTION": 15.27595497,
    "ECCENTRICITY": 0.0001239,
    "INCLINATION": 43.0033,
    "RA_OF_ASC_NODE": 220.3569,
    "ARG_OF_PERICENTER": 271.5833,
    "MEAN_ANOMALY": 88.4877,
    "EPHEMERIS_TYPE": 0,
    "CLASSIFICATION_TYPE": "U",
    "NORAD_CAT_ID": 63561,
    "ELEMENT_SET_NO": 999,
    "REV_AT_EPOCH": 3379,
    "BSTAR": 0.0011945,
    "MEAN_MOTION_DOT": 0.00032769,
    "MEAN_MOTION_DDOT": 0.0,
    "TLE_LINE1": "1 63561U 25075P   25315.13282965  .00032769  00000+0  11945-2 0  9990",
    "TLE_LINE2": "2 63561  43.0033 220.3569 0001239 271.5833  88.4877 15.27595497 33795",
    "COMMENT": "Grouped by shell and plane from TLE"
  },
  {
    "OBJECT_NAME": "STARLINK-32951",
    "OBJECT_ID": "25075Q",
    "EPOCH": "2025-11-11T03:05:41.285184",
    "MEAN_MOTION": 15.27623656,
    "ECCENTRICITY": 0.0001498,
    "INCLINATION": 42.9979,
    "RA_OF_ASC_NODE": 220.3055,
    "ARG_OF_PERICENTER": 271.9947,
    "MEAN_ANOMALY": 88.0733,
    "EPHEMERIS_TYPE": 0,
    "CLASSIFICATION_TYPE": "U",
    "NORAD_CAT_ID": 63562,
    "ELEMENT_SET_NO": 999,
    "REV_AT_EPOCH": 3380,
    "BSTAR": 0.0009424400000000001,
    "MEAN_MOTION_DOT": 0.00025797,
    "MEAN_MOTION_DDOT": 0.0,
    "TLE_LINE1": "1 63562U 25075Q   25315.12895006  .00025797  00000+0  94244-3 0  9993",
    "TLE_LINE2": "2 63562  42.9979 220.3055 0001498 271.9947  88.0733 15.27623656 33808",
    "COMMENT": "Grouped by shell and plane from TLE"
  },
  {
    "OBJECT_NAME": "STARLINK-32958",
    "OBJECT_ID": "25075R",
    "EPOCH": "2025-11-11T02:50:53.148480",
    "MEAN_MOTION": 15.27627298,
    "ECCENTRICITY": 0.0001635,
    "INCLINATION": 42.9999,
    "RA_OF_ASC_NODE": 220.2499,
    "ARG_OF_PERICENTER": 269.9198,
    "MEAN_ANOMALY": 90.1467,
    "EPHEMERIS_TYPE": 0,
    "CLASSIFICATION_TYPE": "U",
    "NORAD_CAT_ID": 63563,
    "ELEMENT_SET_NO": 999,
    "REV_AT_EPOCH": 3379,
    "BSTAR": 0.0019139,
    "MEAN_MOTION_DOT": 0.00052859,
    "MEAN_MOTION_DDOT": 0.0,
    "TLE_LINE1": "1 63563U 25075R   25315.11867070  .00052859  00000+0  19139-2 0  9991",
    "TLE_LINE2": "2 63563  42.9999 220.2499 0001635 269.9198  90.1467 15.27627298 33792",
    "COMMENT": "Grouped by shell and plane from TLE"
  },
  {
    "OBJECT_NAME": "STARLINK-32687",
    "OBJECT_ID": "25075T",
    "EPOCH": "2025-11-11T03:03:50.383872",
    "MEAN_MOTION": 15.27622637,
    "ECCENTRICITY": 9.38e-05,
    "INCLINATION": 42.9986,
    "RA_OF_ASC_NODE": 220.2943,
    "ARG_OF_PERICENTER": 286.9118,
    "MEAN_ANOMALY": 73.1631,
    "EPHEMERIS_TYPE": 0,
    "CLASSIFICATION_TYPE": "U",
    "NORAD_CAT_ID": 63565,
    "ELEMENT_SET_NO": 999,
    "REV_AT_EPOCH": 3380,
    "BSTAR": 0.00085439,
    "MEAN_MOTION_DOT": 0.00023354,
    "MEAN_MOTION_DDOT": 0.0,
    "TLE_LINE1": "1 63565U 25075T   25315.12766648  .00023354  00000+0  85439-3 0  9998",
    "TLE_LINE2": "2 63565  42.9986 220.2943 0000938 286.9118  73.1631 15.27622637 33808",
    "COMMENT": "Grouped by shell and plane from TLE"
  },
  {
    "OBJECT_NAME": "STARLINK-32950",
    "OBJECT_ID": "25075U",
    "EPOCH": "2025-11-11T02:19:24.278592",
    "MEAN_MOTION": 15.27625332,
    "ECCENTRICITY": 0.0003168,
    "INCLINATION": 42.9976,
    "RA_OF_ASC_NODE": 220.0178,
    "ARG_OF_PERICENTER": 251.8153,
    "MEAN_ANOMALY": 108.2354,
    "EPHEMERIS_TYPE": 0,
    "CLASSIFICATION_TYPE": "U",
    "NORAD_CAT_ID": 63566,
    "ELEMENT_SET_NO": 999,
    "REV_AT_EPOCH": 3379,
    "BSTAR": 0.0015597,
    "MEAN_MOTION_DOT": 0.00042971,
    "MEAN_MOTION_DDOT": 0.0,
    "TLE_LINE1": "1 63566U 25075U   25315.09680878  .00042971  00000+0  15597-2 0  9998",
    "TLE_LINE2": "2 63566  42.9976 220.0178 0003168 251.8153 108.2354 15.27625332 33799",
    "COMMENT": "Grouped by shell and plane from TLE"
  },
  {
    "OBJECT_NAME": "STARLINK-32954",
    "OBJECT_ID": "25075V",
    "EPOCH": "2025-11-11T02:37:55.919136",
    "MEAN_MOTION": 15.27627356,
    "ECCENTRICITY": 0.0001201,
    "INCLINATION": 43.0009,
    "RA_OF_ASC_NODE": 220.1504,
    "ARG_OF_PERICENTER": 277.3021,
    "MEAN_ANOMALY": 82.7694,
    "EPHEMERIS_TYPE": 0,
    "CLASSIFICATION_TYPE": "U",
    "NORAD_CAT_ID": 63567,
    "ELEMENT_SET_NO": 999,
    "REV_AT_EPOCH": 3379,
    "BSTAR": 0.0010439,
    "MEAN_MOTION_DOT": 0.00028616,
    "MEAN_MOTION_DDOT": 0.0,
    "TLE_LINE1": "1 63567U 25075V   25315.10967499  .00028616  00000+0  10439-2 0  9998",
    "TLE_LINE2": "2 63567  43.0009 220.1504 0001201 277.3021  82.7694 15.27627356 33797",
    "COMMENT": "Grouped by shell and plane from TLE"
  },
  {
    "OBJECT_NAME": "STARLINK-32940",
    "OBJECT_ID": "25075W",
    "EPOCH": "2025-11-11T02:45:22.256352",
    "MEAN_MOTION": 15.27558384,
    "ECCENTRICITY": 0.0001555,
    "INCLINATION": 42.9995,
    "RA_OF_ASC_NODE": 220.1927,
    "ARG_OF_PERICENTER": 265.3284,
    "MEAN_ANOMALY": 94.739,
    "EPHEMERIS_TYPE": 0,
    "CLASSIFICATION_TYPE": "U",
    "NORAD_CAT_ID": 63568,
    "ELEMENT_SET_NO": 999,
    "REV_AT_EPOCH": 3379,
    "BSTAR": 0.0013751,
    "MEAN_MOTION_DOT": 0.00037747,
    "MEAN_MOTION_DDOT": 0.0,
    "TLE_LINE1": "1 63568U 25075W   25315.11484093  .00037747  00000+0  13751-2 0  9999",
    "TLE_LINE2": "2 63568  42.9995 220.1927 0001555 265.3284  94.7390 15.27558384 33799",
    "COMMENT": "Grouped by shell and plane from TLE"
  },
  {
    "OBJECT_NAME": "STARLINK-33966",
    "OBJECT_ID": "25117A",
    "EPOCH": "2025-11-11T04:31:33.871008",
    "MEAN_MOTION": 15.3022901,
    "ECCENTRICITY": 0.0001394,
    "INCLINATION": 53.1561,
    "RA_OF_ASC_NODE": 229.9674,
    "ARG_OF_PERICENTER": 55.0122,
    "MEAN_ANOMALY": 305.1009,
    "EPHEMERIS_TYPE": 0,
    "CLASSIFICATION_TYPE": "U",
    "NORAD_CAT_ID": 64203,
    "ELEMENT_SET_NO": 999,
    "REV_AT_EPOCH": 2641,
    "BSTAR": 0.0019831,
    "MEAN_MOTION_DOT": 0.00058894,
    "MEAN_MOTION_DDOT": 0.0,
    "TLE_LINE1": "1 64203U 25117A   25315.18858647  .00058894  00000+0  19831-2 0  9991",
    "TLE_LINE2": "2 64203  53.1561 229.9674 0001394  55.0122 305.1009 15.30229010 26413",
    "COMMENT": "Grouped by shell and plane from TLE"
  },
  {
    "OBJECT_NAME": "STARLINK-34324",
    "OBJECT_ID": "25117E",
    "EPOCH": "2025-11-11T04:27:00.112608",
    "MEAN_MOTION": 15.30224299,
    "ECCENTRICITY": 0.0001438,
    "INCLINATION": 53.1574,
    "RA_OF_ASC_NODE": 229.9436,
    "ARG_OF_PERICENTER": 68.2793,
    "MEAN_ANOMALY": 291.8361,
    "EPHEMERIS_TYPE": 0,
    "CLASSIFICATION_TYPE": "U",
    "NORAD_CAT_ID": 64207,
    "ELEMENT_SET_NO": 999,
    "REV_AT_EPOCH": 2535,
    "BSTAR": 0.0020327,
    "MEAN_MOTION_DOT": 0.00060379,
    "MEAN_MOTION_DDOT": 0.0,
    "TLE_LINE1": "1 64207U 25117E   25315.18541797  .00060379  00000+0  20327-2 0  9993",
    "TLE_LINE2": "2 64207  53.1574 229.9436 0001438  68.2793 291.8361 15.30224299 25354",
    "COMMENT": "Grouped by shell and plane from TLE"
  },
  {
    "OBJECT_NAME": "STARLINK-34327",
    "OBJECT_ID": "25117F",
    "EPOCH": "2025-11-11T04:05:43.781568",
    "MEAN_MOTION": 15.30216327,
    "ECCENTRICITY": 0.0001578,
    "INCLINATION": 53.159,
    "RA_OF_ASC_NODE": 229.8528,
    "ARG_OF_PERICENTER": 74.9132,
    "MEAN_ANOMALY": 285.2044,
    "EPHEMERIS_TYPE": 0,
    "CLASSIFICATION_TYPE": "U",
    "NORAD_CAT_ID": 64208,
    "ELEMENT_SET_NO": 999,
    "REV_AT_EPOCH": 2534,
    "BSTAR": 0.0009074700000000001,
    "MEAN_MOTION_DOT": 0.00026628,
    "MEAN_MOTION_DDOT": 0.0,
    "TLE_LINE1": "1 64208U 25117F   25315.17064562  .00026628  00000+0  90747-3 0  9996",
    "TLE_LINE2": "2 64208  53.1590 229.8528 0001578  74.9132 285.2044 15.30216327 25347",
    "COMMENT": "Grouped by shell and plane from TLE"
  },
  {
    "OBJECT_NAME": "STARLINK-33944",
    "OBJECT_ID": "25117G",
    "EPOCH": "2025-11-11T04:19:24.085632",
    "MEAN_MOTION": 15.30233016,
    "ECCENTRICITY": 0.0001226,
    "INCLINATION": 53.1585,
    "RA_OF_ASC_NODE": 229.9162,
    "ARG_OF_PERICENTER": 51.7251,
    "MEAN_ANOMALY": 308.386,
    "EPHEMERIS_TYPE": 0,
    "CLASSIFICATION_TYPE": "U",
    "NORAD_CAT_ID": 64209,
    "ELEMENT_SET_NO": 999,
    "REV_AT_EPOCH": 2641,
    "BSTAR": 0.0012945,
    "MEAN_MOTION_DOT": 0.00038218,
    "MEAN_MOTION_DDOT": 0.0,
    "TLE_LINE1": "1 64209U 25117G   25315.18013988  .00038218  00000+0  12945-2 0  9995",
    "TLE_LINE2": "2 64209  53.1585 229.9162 0001226  51.7251 308.3860 15.30233016 26418",
    "COMMENT": "Grouped by shell and plane from TLE"
  },
  {
    "OBJECT_NAME": "STARLINK-34310",
    "OBJECT_ID": "25117H",
    "EPOCH": "2025-11-11T04:08:46.165920",
    "MEAN_MOTION": 15.30212608,
    "ECCENTRICITY": 0.0001282,
    "INCLINATION": 53.1586,
    "RA_OF_ASC_NODE": 229.8634,
    "ARG_OF_PERICENTER": 92.6372,
    "MEAN_ANOMALY": 267.4776,
    "EPHEMERIS_TYPE": 0,
    "CLASSIFICATION_TYPE": "U",
    "NORAD_CAT_ID": 64210,
    "ELEMENT_SET_NO": 999,
    "REV_AT_EPOCH": 2638,
    "BSTAR": 0.0016289000000000002,
    "MEAN_MOTION_DOT": 0.00048218,
    "MEAN_MOTION_DDOT": 0.0,
    "TLE_LINE1": "1 64210U 25117H   25315.17275655  .00048218  00000+0  16289-2 0  9993",
    "TLE_LINE2": "2 64210  53.1586 229.8634 0001282  92.6372 267.4776 15.30212608 26385",
    "COMMENT": "Grouped by shell and plane from TLE"
  }
]